{"type":"FeatureCollection","properties":{"round":1,"startUnix":0,"units":"yds"},"features":[{"type":"Feature","geometry":{"type":"LineString","coordinates":[[-121.948,36.568],[-121.9462869,36.5691204]]},"properties":{"hole":1,"shot":1,"club":"Driver","distance":216,"putt":false,"startAccM":0.6,"endAccM":0.6,"startUnix":1780358400,"endUnix":1780358671}},{"type":"Feature","geometry":{"type":"LineString","coordinates":[[-121.9462839,36.5691179],[-121.9451152,36.5696874]]},"properties":{"hole":1,"shot":2,"club":"PW","distance":134,"putt":false,"startAccM":0.5,"endAccM":0.6,"startUnix":1780358693,"endUnix":1780358889}},{"type":"Feature","geometry":{"type":"Point","coordinates":[-121.9451368,36.569696]},"properties":{"hole":1,"shot":3,"club":"Putter","distance":-1,"putt":true,"startAccM":0.5,"endAccM":0.0,"startUnix":1780359020,"endUnix":0}},{"type":"Feature","geometry":{"type":"Point","coordinates":[-121.9451452,36.5697606]},"properties":{"hole":1,"shot":4,"club":"Putter","distance":-1,"putt":true,"startAccM":0.5,"endAccM":0.0,"startUnix":1780359031,"endUnix":0}},{"type":"Feature","geometry":{"type":"LineString","coordinates":[[-121.9439577,36.5699076],[-121.9420329,36.5709361]]},"properties":{"hole":2,"shot":1,"club":"4 Iron","distance":226,"putt":false,"startAccM":0.5,"endAccM":0.4,"startUnix":1780359122,"endUnix":1780359562}},{"type":"Feature","geometry":{"type":"LineString","coordinates":[[-121.9420359,36.5709372],[-121.9410039,36.5714473]]},"properties":{"hole":2,"shot":2,"club":"GW","distance":118,"putt":false,"startAccM":0.4,"endAccM":0.5,"startUnix":1780359597,"endUnix":1780359733}},{"type":"Feature","geometry":{"type":"Point","coordinates":[-121.9410032,36.5714503]},"properties":{"hole":2,"shot":3,"club":"Putter","distance":-1,"putt":true,"startAccM":0.5,"endAccM":0.0,"startUnix":1780359740,"endUnix":0}},{"type":"Feature","geometry":{"type":"Point","coordinates":[-121.940924,36.5715549]},"properties":{"hole":2,"shot":4,"club":"Putter","distance":-1,"putt":true,"startAccM":0.4,"endAccM":0.0,"startUnix":1780359818,"endUnix":0}},{"type":"Feature","geometry":{"type":"LineString","coordinates":[[-121.9412278,36.5707028],[-121.9414299,36.5692838]]},"properties":{"hole":3,"shot":1,"club":"6 Iron","distance":174,"putt":false,"startAccM":0.4,"endAccM":0.4,"startUnix":1780360087,"endUnix":1780360652}},{"type":"Feature","geometry":{"type":"Point","coordinates":[-121.9414345,36.5692896]},"properties":{"hole":3,"shot":2,"club":"Putter","distance":-1,"putt":true,"startAccM":0.3,"endAccM":0.0,"startUnix":1780360692,"endUnix":0}},{"type":"Feature","geometry":{"type":"LineString","coordinates":[[-121.9409275,36.5685496],[-121.9400152,36.5706126]]},"properties":{"hole":4,"shot":1,"club":"Driver","distance":266,"putt":false,"startAccM":0.5,"endAccM":0.3,"startUnix":1780361005,"endUnix":1780361371}},{"type":"Feature","geometry":{"type":"LineString","coordinates":[[-121.940012,36.5706117],[-121.9404911,36.5720328]]},"properties":{"hole":4,"shot":2,"club":"7 Iron","distance":179,"putt":false,"startAccM":0.4,"endAccM":0.5,"startUnix":1780361379,"endUnix":1780361588}},{"type":"Feature","geometry":{"type":"LineString","coordinates":[[-121.9404899,36.572029],[-121.94016,36.5719875]]},"properties":{"hole":4,"shot":3,"club":"LW","distance":33,"putt":false,"startAccM":0.5,"endAccM":0.4,"startUnix":1780361599,"endUnix":1780361658}},{"type":"Feature","geometry":{"type":"Point","coordinates":[-121.9401622,36.5719891]},"properties":{"hole":4,"shot":4,"club":"Putter","distance":-1,"putt":true,"startAccM":0.4,"endAccM":0.0,"startUnix":1780361664,"endUnix":0}},{"type":"Feature","geometry":{"type":"LineString","coordinates":[[-121.9393705,36.5727527],[-121.9395413,36.5703653]]},"properties":{"hole":5,"shot":1,"club":"Driver","distance":291,"putt":false,"startAccM":0.5,"endAccM":0.6,"startUnix":1780361833,"endUnix":1780362269}},{"type":"Feature","geometry":{"type":"LineString","coordinates":[[-121.9395289,36.570371],[-121.9398386,36.5693607]]},"properties":{"hole":5,"shot":2,"club":"GW","distance":127,"putt":false,"startAccM":0.5,"endAccM":0.6,"startUnix":1780362296,"endUnix":1780362402}},{"type":"Feature","geometry":{"type":"Point","coordinates":[-121.9398624,36.5693674]},"properties":{"hole":5,"shot":3,"club":"Putter","distance":-1,"putt":true,"startAccM":0.5,"endAccM":0.0,"startUnix":1780362443,"endUnix":0}},{"type":"Feature","geometry":{"type":"Point","coordinates":[-121.9398721,36.5693504]},"properties":{"hole":5,"shot":4,"club":"Putter","distance":-1,"putt":true,"startAccM":0.4,"endAccM":0.0,"startUnix":1780362515,"endUnix":0}}]}
